{
  "type": "FeatureCollection",
  "features": [
    {
      "type": "Feature",
      "properties": {
        "norad_id": 67032,
        "name": "STARLINK-36131",
        "group": "last-30-days",
        "lat": -42.8728016550039,
        "lon": 11.454496594745187,
        "alt_km": 376.64998893661686,
        "timestamp": "2025-12-26T18:39:31.000057+00:00",
        "meta_object_name": "STARLINK-36131",
        "meta_object_id": "2025-294C",
        "meta_epoch": "2025-12-26T14:00:04.000032",
        "meta_mean_motion": 15.65469593,
        "meta_eccentricity": 0.00012989,
        "meta_inclination": 42.9993,
        "meta_ra_of_asc_node": 97.687,
        "meta_arg_of_pericenter": 274.0096,
        "meta_mean_anomaly": 344.8978,
        "meta_ephemeris_type": 0,
        "meta_classification_type": "U",
        "meta_norad_cat_id": 67032,
        "meta_element_set_no": 999,
        "meta_rev_at_epoch": 233,
        "meta_bstar": -0.021362806,
        "meta_mean_motion_dot": -0.01942277,
        "meta_mean_motion_ddot": 0,
        "tle_line1": "1 67032U 25294C   25360.58337963 -.01942277  00000+0 -21363-1 0  9999",
        "tle_line2": "2 67032  42.9993  97.6870 0001298 274.0096 344.8978 15.65469593  2335"
      },
      "geometry": {
        "type": "Point",
        "coordinates": [
          11.454496594745187,
          -42.8728016550039
        ]
      }
    },
    {
      "type": "Feature",
      "properties": {
        "norad_id": 67033,
        "name": "STARLINK-36137",
        "group": "last-30-days",
        "lat": -42.95794610467483,
        "lon": 8.71588691469489,
        "alt_km": 376.65831750551115,
        "timestamp": "2025-12-26T18:39:31.000067+00:00",
        "meta_object_name": "STARLINK-36137",
        "meta_object_id": "2025-294D",
        "meta_epoch": "2025-12-26T14:00:04.000032",
        "meta_mean_motion": 15.65477395,
        "meta_eccentricity": 0.00012818,
        "meta_inclination": 42.9994,
        "meta_ra_of_asc_node": 97.6923,
        "meta_arg_of_pericenter": 279.1604,
        "meta_mean_anomaly": 337.7295,
        "meta_ephemeris_type": 0,
        "meta_classification_type": "U",
        "meta_norad_cat_id": 67033,
        "meta_element_set_no": 999,
        "meta_rev_at_epoch": 233,
        "meta_bstar": -0.021377337,
        "meta_mean_motion_dot": -0.01943972,
        "meta_mean_motion_ddot": 0,
        "tle_line1": "1 67033U 25294D   25360.58337963 -.01943972  00000+0 -21377-1 0  9998",
        "tle_line2": "2 67033  42.9994  97.6923 0001281 279.1604 337.7295 15.65477395  2331"
      },
      "geometry": {
        "type": "Point",
        "coordinates": [
          8.71588691469489,
          -42.95794610467483
        ]
      }
    },
    {
      "type": "Feature",
      "properties": {
        "norad_id": 67034,
        "name": "STARLINK-36140",
        "group": "last-30-days",
        "lat": -42.71677648899793,
        "lon": 14.26712122183859,
        "alt_km": 376.7168384680417,
        "timestamp": "2025-12-26T18:39:31.000079+00:00",
        "meta_object_name": "STARLINK-36140",
        "meta_object_id": "2025-294E",
        "meta_epoch": "2025-12-26T14:00:04.000032",
        "meta_mean_motion": 15.65455074,
        "meta_eccentricity": 0.00012463,
        "meta_inclination": 42.9993,
        "meta_ra_of_asc_node": 97.6818,
        "meta_arg_of_pericenter": 276.2734,
        "meta_mean_anomaly": 344.7204,
        "meta_ephemeris_type": 0,
        "meta_classification_type": "U",
        "meta_norad_cat_id": 67034,
        "meta_element_set_no": 999,
        "meta_rev_at_epoch": 233,
        "meta_bstar": -0.02132614,
        "meta_mean_motion_dot": -0.01938291,
        "meta_mean_motion_ddot": 0,
        "tle_line1": "1 67034U 25294E   25360.58337963 -.01938291  00000+0 -21326-1 0  9991",
        "tle_line2": "2 67034  42.9993  97.6818 0001246 276.2734 344.7204 15.65455074  2335"
      },
      "geometry": {
        "type": "Point",
        "coordinates": [
          14.26712122183859,
          -42.71677648899793
        ]
      }
    },
    {
      "type": "Feature",
      "properties": {
        "norad_id": 67035,
        "name": "STARLINK-36085",
        "group": "last-30-days",
        "lat": -42.19528649250414,
        "lon": 19.872288409710713,
        "alt_km": 376.7844439606997,
        "timestamp": "2025-12-26T18:39:31.000089+00:00",
        "meta_object_name": "STARLINK-36085",
        "meta_object_id": "2025-294F",
        "meta_epoch": "2025-12-26T14:00:04.000032",
        "meta_mean_motion": 15.65427784,
        "meta_eccentricity": 0.00012401,
        "meta_inclination": 42.9993,
        "meta_ra_of_asc_node": 97.6711,
        "meta_arg_of_pericenter": 274.7015,
        "meta_mean_anomaly": 350.4923,
        "meta_ephemeris_type": 0,
        "meta_classification_type": "U",
        "meta_norad_cat_id": 67035,
        "meta_element_set_no": 999,
        "meta_rev_at_epoch": 233,
        "meta_bstar": -0.021394367,
        "meta_mean_motion_dot": -0.01941862,
        "meta_mean_motion_ddot": 0,
        "tle_line1": "1 67035U 25294F   25360.58337963 -.01941862  00000+0 -21394-1 0  9995",
        "tle_line2": "2 67035  42.9993  97.6711 0001240 274.7015 350.4923 15.65427784  2336"
      },
      "geometry": {
        "type": "Point",
        "coordinates": [
          19.872288409710713,
          -42.19528649250414
        ]
      }
    },
    {
      "type": "Feature",
      "properties": {
        "norad_id": 67036,
        "name": "STARLINK-36125",
        "group": "last-30-days",
        "lat": -42.49039640810107,
        "lon": 17.08055882570042,
        "alt_km": 376.70527095182115,
        "timestamp": "2025-12-26T18:39:31.000099+00:00",
        "meta_object_name": "STARLINK-36125",
        "meta_object_id": "2025-294G",
        "meta_epoch": "2025-12-26T14:00:04.000032",
        "meta_mean_motion": 15.65440711,
        "meta_eccentricity": 0.00013179,
        "meta_inclination": 42.9993,
        "meta_ra_of_asc_node": 97.6765,
        "meta_arg_of_pericenter": 276.3308,
        "meta_mean_anomaly": 346.7635,
        "meta_ephemeris_type": 0,
        "meta_classification_type": "U",
        "meta_norad_cat_id": 67036,
        "meta_element_set_no": 999,
        "meta_rev_at_epoch": 252,
        "meta_bstar": -0.021390036,
        "meta_mean_motion_dot": -0.01942469,
        "meta_mean_motion_ddot": 0,
        "tle_line1": "1 67036U 25294G   25360.58337963 -.01942469  00000+0 -21390-1 0  9996",
        "tle_line2": "2 67036  42.9993  97.6765 0001317 276.3308 346.7635 15.65440711  2528"
      },
      "geometry": {
        "type": "Point",
        "coordinates": [
          17.08055882570042,
          -42.49039640810107
        ]
      }
    },
    {
      "type": "Feature",
      "properties": {
        "norad_id": 67037,
        "name": "STARLINK-35732",
        "group": "last-30-days",
        "lat": -41.822119868792925,
        "lon": 22.711363240698336,
        "alt_km": 376.78896399600126,
        "timestamp": "2025-12-26T18:39:31.000110+00:00",
        "meta_object_name": "STARLINK-35732",
        "meta_object_id": "2025-294H",
        "meta_epoch": "2025-12-26T14:00:04.000032",
        "meta_mean_motion": 15.65407655,
        "meta_eccentricity": 0.0001293,
        "meta_inclination": 42.9995,
        "meta_ra_of_asc_node": 97.6657,
        "meta_arg_of_pericenter": 277.4052,
        "meta_mean_anomaly": 349.9522,
        "meta_ephemeris_type": 0,
        "meta_classification_type": "U",
        "meta_norad_cat_id": 67037,
        "meta_element_set_no": 999,
        "meta_rev_at_epoch": 244,
        "meta_bstar": -0.021393579,
        "meta_mean_motion_dot": -0.01940441,
        "meta_mean_motion_ddot": 0,
        "tle_line1": "1 67037U 25294H   25360.58337963 -.01940441  00000+0 -21394-1 0  9999",
        "tle_line2": "2 67037  42.9995  97.6657 0001293 277.4052 349.9522 15.65407655  2443"
      },
      "geometry": {
        "type": "Point",
        "coordinates": [
          22.711363240698336,
          -41.822119868792925
        ]
      }
    },
    {
      "type": "Feature",
      "properties": {
        "norad_id": 67038,
        "name": "STARLINK-35775",
        "group": "last-30-days",
        "lat": -41.40875731923016,
        "lon": 25.341711059801344,
        "alt_km": 376.7761434389622,
        "timestamp": "2025-12-26T18:39:31.000121+00:00",
        "meta_object_name": "STARLINK-35775",
        "meta_object_id": "2025-294J",
        "meta_epoch": "2025-12-26T14:00:04.000032",
        "meta_mean_motion": 15.65399142,
        "meta_eccentricity": 0.00013304,
        "meta_inclination": 42.9994,
        "meta_ra_of_asc_node": 97.6605,
        "meta_arg_of_pericenter": 277.3479,
        "meta_mean_anomaly": 352.0315,
        "meta_ephemeris_type": 0,
        "meta_classification_type": "U",
        "meta_norad_cat_id": 67038,
        "meta_element_set_no": 999,
        "meta_rev_at_epoch": 244,
        "meta_bstar": -0.02142621,
        "meta_mean_motion_dot": -0.01942488,
        "meta_mean_motion_ddot": 0,
        "tle_line1": "1 67038U 25294J   25360.58337963 -.01942488  00000+0 -21426-1 0  9999",
        "tle_line2": "2 67038  42.9994  97.6605 0001330 277.3479 352.0315 15.65399142  2446"
      },
      "geometry": {
        "type": "Point",
        "coordinates": [
          25.341711059801344,
          -41.40875731923016
        ]
      }
    }
  ]
}